{
    "links": {
        "self": "http://www.neowsapp.com/rest/v1/neo/3713007?api_key=iIulBulltgU6a56xZRHN4H3l9WmuAYTsLGpBGhQ2"
    },
    "id": "3713007",
    "neo_reference_id": "3713007",
    "name": "(2015 EW)",
    "designation": "2015 EW",
    "nasa_jpl_url": "http://ssd.jpl.nasa.gov/sbdb.cgi?sstr=3713007",
    "absolute_magnitude_h": 24.1,
    "estimated_diameter": {
        "kilometers": {
            "estimated_diameter_min": 0.040230458,
            "estimated_diameter_max": 0.0899580388
        },
        "meters": {
            "estimated_diameter_min": 40.2304579834,
            "estimated_diameter_max": 89.9580388169
        },
        "miles": {
            "estimated_diameter_min": 0.0249980399,
            "estimated_diameter_max": 0.0558973165
        },
        "feet": {
            "estimated_diameter_min": 131.9896957704,
            "estimated_diameter_max": 295.1379320721
        }
    },
    "is_potentially_hazardous_asteroid": false,
    "close_approach_data": [
        {
            "close_approach_date": "2015-03-13",
            "close_approach_date_full": "2015-Mar-13 08:10",
            "epoch_date_close_approach": 1426234200000,
            "relative_velocity": {
                "kilometers_per_second": "14.083439321",
                "kilometers_per_hour": "50700.3815554988",
                "miles_per_hour": "31503.245417082"
            },
            "miss_distance": {
                "astronomical": "0.1071856833",
                "lunar": "41.6952308037",
                "kilometers": "16034749.916174571",
                "miles": "9963531.5828122398"
            },
            "orbiting_body": "Earth"
        },
        {
            "close_approach_date": "2015-09-02",
            "close_approach_date_full": "2015-Sep-02 00:23",
            "epoch_date_close_approach": 1441153380000,
            "relative_velocity": {
                "kilometers_per_second": "13.8610829921",
                "kilometers_per_hour": "49899.8987714419",
                "miles_per_hour": "31005.8565449551"
            },
            "miss_distance": {
                "astronomical": "0.1999041937",
                "lunar": "77.7627313493",
                "kilometers": "29905241.581587419",
                "miles": "18582255.4481636222"
            },
            "orbiting_body": "Earth"
        }
    ],
    "orbital_data": {
        "orbit_id": "3",
        "orbit_determination_date": "2017-04-06 08:35:10",
        "first_observation_date": "2015-03-11",
        "last_observation_date": "2015-03-13",
        "data_arc_in_days": 2,
        "observations_used": 20,
        "orbit_uncertainty": "9",
        "minimum_orbit_intersection": ".10708",
        "jupiter_tisserand_invariant": "5.216",
        "epoch_osculation": "2457094.5",
        "eccentricity": ".1571893304411675",
        "semi_major_axis": "1.191239745685811",
        "inclination": "26.15518886875378",
        "ascending_node_longitude": "168.0699100836266",
        "orbital_period": "474.8945545268953",
        "perihelion_distance": "1.003989567666552",
        "perihelion_argument": "71.51800437695709",
        "aphelion_distance": "1.378489923705071",
        "perihelion_time": "2457162.682304244015",
        "mean_anomaly": "308.3135165609584",
        "mean_motion": ".7580630196078858",
        "equinox": "J2000",
        "orbit_class": {
            "orbit_class_type": "APO",
            "orbit_class_description": "Near-Earth asteroid orbits which cross the Earth’s orbit similar to that of 1862 Apollo",
            "orbit_class_range": "a (semi-major axis) > 1.0 AU; q (perihelion) < 1.017 AU"
        }
    },
    "is_sentry_object": false
}